CCSDS_OMM_VERS = 2.0
CREATION_DATE  = 
ORIGINATOR     = 

OBJECT_NAME    = YOTSUBA-KULOVER
OBJECT_ID      = 1998-067XN
CENTER_NAME    = EARTH
REF_FRAME      = TEME
TIME_SYSTEM    = UTC
MEAN_ELEMENT_THEORY = SGP/SGP4

EPOCH          = 2026-03-11T03:49:48.099936
MEAN_MOTION    = 15.81236605
ECCENTRICITY   = .00053633
INCLINATION    = 51.6213
RA_OF_ASC_NODE = 49.6653
ARG_OF_PERICENTER = 77.4147
MEAN_ANOMALY   = 282.7454

EPHEMERIS_TYPE = 0
CLASSIFICATION_TYPE = U
NORAD_CAT_ID   = 65941
ELEMENT_SET_NO = 999
REV_AT_EPOCH   = 2373
BSTAR          = .12152531E-2
MEAN_MOTION_DOT = .251035E-2
MEAN_MOTION_DDOT = 0

CCSDS_OMM_VERS = 2.0
CREATION_DATE  = 
ORIGINATOR     = 

OBJECT_NAME    = E-KAGAKU-1
OBJECT_ID      = 1998-067XQ
CENTER_NAME    = EARTH
REF_FRAME      = TEME
TIME_SYSTEM    = UTC
MEAN_ELEMENT_THEORY = SGP/SGP4

EPOCH          = 2026-03-11T08:29:46.752576
MEAN_MOTION    = 15.80954651
ECCENTRICITY   = .0005829
INCLINATION    = 51.6236
RA_OF_ASC_NODE = 48.7312
ARG_OF_PERICENTER = 85.6037
MEAN_ANOMALY   = 274.5631

EPHEMERIS_TYPE = 0
CLASSIFICATION_TYPE = U
NORAD_CAT_ID   = 65943
ELEMENT_SET_NO = 999
REV_AT_EPOCH   = 2376
BSTAR          = .11982E-2
MEAN_MOTION_DOT = .244131E-2
MEAN_MOTION_DDOT = 0

CCSDS_OMM_VERS = 2.0
CREATION_DATE  = 
ORIGINATOR     = 

OBJECT_NAME    = HRC MONOBLOCK CAMERA
OBJECT_ID      = 1998-067XR
CENTER_NAME    = EARTH
REF_FRAME      = TEME
TIME_SYSTEM    = UTC
MEAN_ELEMENT_THEORY = SGP/SGP4

EPOCH          = 2026-03-11T08:43:22.617408
MEAN_MOTION    = 15.62407862
ECCENTRICITY   = .0003725
INCLINATION    = 51.6285
RA_OF_ASC_NODE = 57.0842
ARG_OF_PERICENTER = 100.4514
MEAN_ANOMALY   = 259.6900

EPHEMERIS_TYPE = 0
CLASSIFICATION_TYPE = U
NORAD_CAT_ID   = 66052
ELEMENT_SET_NO = 999
REV_AT_EPOCH   = 2265
BSTAR          = .66086E-3
MEAN_MOTION_DOT = .59702E-3
MEAN_MOTION_DDOT = 0

CCSDS_OMM_VERS = 2.0
CREATION_DATE  = 
ORIGINATOR     = 

OBJECT_NAME    = HTV-X1
OBJECT_ID      = 2025-241A
CENTER_NAME    = EARTH
REF_FRAME      = TEME
TIME_SYSTEM    = UTC
MEAN_ELEMENT_THEORY = SGP/SGP4

EPOCH          = 2026-03-11T04:35:18.514464
MEAN_MOTION    = 15.48575655
ECCENTRICITY   = .00079324
INCLINATION    = 51.6325
RA_OF_ASC_NODE = 64.9326
ARG_OF_PERICENTER = 179.9008
MEAN_ANOMALY   = 180.1983

EPHEMERIS_TYPE = 0
CLASSIFICATION_TYPE = U
NORAD_CAT_ID   = 66174
ELEMENT_SET_NO = 999
REV_AT_EPOCH   = 55447
BSTAR          = .17769709E-3
MEAN_MOTION_DOT = .9215E-4
MEAN_MOTION_DDOT = 0

CCSDS_OMM_VERS = 2.0
CREATION_DATE  = 
ORIGINATOR     = 

OBJECT_NAME    = SZ-21 MODULE
OBJECT_ID      = 2025-246C
CENTER_NAME    = EARTH
REF_FRAME      = TEME
TIME_SYSTEM    = UTC
MEAN_ELEMENT_THEORY = SGP/SGP4

EPOCH          = 2026-03-10T09:24:12.315744
MEAN_MOTION    = 15.68612654
ECCENTRICITY   = .00013212
INCLINATION    = 41.4733
RA_OF_ASC_NODE = 199.0379
ARG_OF_PERICENTER = 300.4317
MEAN_ANOMALY   = 59.6394

EPHEMERIS_TYPE = 0
CLASSIFICATION_TYPE = U
NORAD_CAT_ID   = 66515
ELEMENT_SET_NO = 999
REV_AT_EPOCH   = 1818
BSTAR          = .39494604E-3
MEAN_MOTION_DOT = .46134E-3
MEAN_MOTION_DDOT = 0

CCSDS_OMM_VERS = 2.0
CREATION_DATE  = 
ORIGINATOR     = 

OBJECT_NAME    = SHENZHOU-22
OBJECT_ID      = 2025-272A
CENTER_NAME    = EARTH
REF_FRAME      = TEME
TIME_SYSTEM    = UTC
MEAN_ELEMENT_THEORY = SGP/SGP4

EPOCH          = 2026-03-11T12:10:29.974368
MEAN_MOTION    = 15.60767637
ECCENTRICITY   = .0006867
INCLINATION    = 41.4664
RA_OF_ASC_NODE = 197.1019
ARG_OF_PERICENTER = 283.1320
MEAN_ANOMALY   = 76.8752

EPHEMERIS_TYPE = 0
CLASSIFICATION_TYPE = U
NORAD_CAT_ID   = 66645
ELEMENT_SET_NO = 999
REV_AT_EPOCH   = 26961
BSTAR          = .34347E-3
MEAN_MOTION_DOT = .2922E-3
MEAN_MOTION_DDOT = 0

CCSDS_OMM_VERS = 2.0
CREATION_DATE  = 
ORIGINATOR     = 

OBJECT_NAME    = SOYUZ-MS 28
OBJECT_ID      = 2025-275A
CENTER_NAME    = EARTH
REF_FRAME      = TEME
TIME_SYSTEM    = UTC
MEAN_ELEMENT_THEORY = SGP/SGP4

EPOCH          = 2026-03-11T04:35:18.514464
MEAN_MOTION    = 15.48575655
ECCENTRICITY   = .00079324
INCLINATION    = 51.6325
RA_OF_ASC_NODE = 64.9326
ARG_OF_PERICENTER = 179.9008
MEAN_ANOMALY   = 180.1983

EPHEMERIS_TYPE = 0
CLASSIFICATION_TYPE = U
NORAD_CAT_ID   = 66664
ELEMENT_SET_NO = 999
REV_AT_EPOCH   = 55452
BSTAR          = .17769709E-3
MEAN_MOTION_DOT = .9215E-4
MEAN_MOTION_DDOT = 0

CCSDS_OMM_VERS = 2.0
CREATION_DATE  = 
ORIGINATOR     = 

OBJECT_NAME    = DUPLEX
OBJECT_ID      = 1998-067XS
CENTER_NAME    = EARTH
REF_FRAME      = TEME
TIME_SYSTEM    = UTC
MEAN_ELEMENT_THEORY = SGP/SGP4

EPOCH          = 2026-03-11T12:18:03.841344
MEAN_MOTION    = 15.56362419
ECCENTRICITY   = .0002563
INCLINATION    = 51.6291
RA_OF_ASC_NODE = 60.3322
ARG_OF_PERICENTER = 120.8147
MEAN_ANOMALY   = 239.3097

EPHEMERIS_TYPE = 0
CLASSIFICATION_TYPE = U
NORAD_CAT_ID   = 66906
ELEMENT_SET_NO = 999
REV_AT_EPOCH   = 1541
BSTAR          = .57411E-3
MEAN_MOTION_DOT = .40984E-3
MEAN_MOTION_DDOT = 0

CCSDS_OMM_VERS = 2.0
CREATION_DATE  = 
ORIGINATOR     = 

OBJECT_NAME    = ISS OBJECT XT
OBJECT_ID      = 1998-067XT
CENTER_NAME    = EARTH
REF_FRAME      = TEME
TIME_SYSTEM    = UTC
MEAN_ELEMENT_THEORY = SGP/SGP4

EPOCH          = 2026-03-11T05:43:09.095808
MEAN_MOTION    = 15.69794721
ECCENTRICITY   = .00047452
INCLINATION    = 51.6251
RA_OF_ASC_NODE = 57.7346
ARG_OF_PERICENTER = 87.9438
MEAN_ANOMALY   = 272.2103

EPHEMERIS_TYPE = 0
CLASSIFICATION_TYPE = U
NORAD_CAT_ID   = 66907
ELEMENT_SET_NO = 999
REV_AT_EPOCH   = 1542
BSTAR          = .14361312E-2
MEAN_MOTION_DOT = .178159E-2
MEAN_MOTION_DDOT = 0

CCSDS_OMM_VERS = 2.0
CREATION_DATE  = 
ORIGINATOR     = 

OBJECT_NAME    = ISS OBJECT XU
OBJECT_ID      = 1998-067XU
CENTER_NAME    = EARTH
REF_FRAME      = TEME
TIME_SYSTEM    = UTC
MEAN_ELEMENT_THEORY = SGP/SGP4

EPOCH          = 2026-03-11T08:43:42.110112
MEAN_MOTION    = 15.69975875
ECCENTRICITY   = .000482
INCLINATION    = 51.6252
RA_OF_ASC_NODE = 57.0682
ARG_OF_PERICENTER = 90.1166
MEAN_ANOMALY   = 270.0384

EPHEMERIS_TYPE = 0
CLASSIFICATION_TYPE = U
NORAD_CAT_ID   = 66908
ELEMENT_SET_NO = 999
REV_AT_EPOCH   = 1544
BSTAR          = .15073E-2
MEAN_MOTION_DOT = .188668E-2
MEAN_MOTION_DDOT = 0

CCSDS_OMM_VERS = 2.0
CREATION_DATE  = 
ORIGINATOR     = 

OBJECT_NAME    = SILVERSAT
OBJECT_ID      = 1998-067XV
CENTER_NAME    = EARTH
REF_FRAME      = TEME
TIME_SYSTEM    = UTC
MEAN_ELEMENT_THEORY = SGP/SGP4

EPOCH          = 2026-03-11T05:37:58.520640
MEAN_MOTION    = 15.72937624
ECCENTRICITY   = .0005466
INCLINATION    = 51.6250
RA_OF_ASC_NODE = 56.9557
ARG_OF_PERICENTER = 87.1357
MEAN_ANOMALY   = 273.0267

EPHEMERIS_TYPE = 0
CLASSIFICATION_TYPE = U
NORAD_CAT_ID   = 66909
ELEMENT_SET_NO = 999
REV_AT_EPOCH   = 1543
BSTAR          = .16574E-2
MEAN_MOTION_DOT = .236525E-2
MEAN_MOTION_DDOT = 0

CCSDS_OMM_VERS = 2.0
CREATION_DATE  = 
ORIGINATOR     = 

OBJECT_NAME    = ISS OBJECT XW
OBJECT_ID      = 1998-067XW
CENTER_NAME    = EARTH
REF_FRAME      = TEME
TIME_SYSTEM    = UTC
MEAN_ELEMENT_THEORY = SGP/SGP4

EPOCH          = 2026-03-11T05:36:44.037792
MEAN_MOTION    = 15.69081269
ECCENTRICITY   = .0005316
INCLINATION    = 51.6252
RA_OF_ASC_NODE = 57.6975
ARG_OF_PERICENTER = 95.4804
MEAN_ANOMALY   = 264.6799

EPHEMERIS_TYPE = 0
CLASSIFICATION_TYPE = U
NORAD_CAT_ID   = 66910
ELEMENT_SET_NO = 999
REV_AT_EPOCH   = 1542
BSTAR          = .13203E-2
MEAN_MOTION_DOT = .158614E-2
MEAN_MOTION_DDOT = 0

