YOTSUBA-KULOVER         
1 65941U 98067XN  26070.15958449  .00251035  00000+0  12153-2 0  9994
2 65941  51.6213  49.6653 0005363  77.4147 282.7454 15.81236605 23739
E-KAGAKU-1              
1 65943U 98067XQ  26070.35401334  .00244131  00000+0  11982-2 0  9992
2 65943  51.6236  48.7312 0005829  85.6037 274.5631 15.80954651 23760
HRC MONOBLOCK CAMERA    
1 66052U 98067XR  26070.36345622  .00059702  00000+0  66086-3 0  9996
2 66052  51.6285  57.0842 0003725 100.4514 259.6900 15.62407862 22653
HTV-X1                  
1 66174U 25241A   26070.19118651  .00009215  00000+0  17770-3 0  9996
2 66174  51.6325  64.9326 0007932 179.9008 180.1983 15.48575655554479
SZ-21 MODULE            
1 66515U 25246C   26069.39180921  .00046134  00000+0  39495-3 0  9998
2 66515  41.4733 199.0379 0001321 300.4317  59.6394 15.68612654 18188
SHENZHOU-22             
1 66645U 25272A   26070.50729137  .00029220  00000+0  34347-3 0  9992
2 66645  41.4664 197.1019 0006867 283.1320  76.8752 15.60767637269615
SOYUZ-MS 28             
1 66664U 25275A   26070.19118651  .00009215  00000+0  17770-3 0  9997
2 66664  51.6325  64.9326 0007932 179.9008 180.1983 15.48575655554529
DUPLEX                  
1 66906U 98067XS  26070.51254446  .00040984  00000+0  57411-3 0  9998
2 66906  51.6291  60.3322 0002563 120.8147 239.3097 15.56362419 15414
ISS OBJECT XT           
1 66907U 98067XT  26070.23829972  .00178159  00000+0  14361-2 0  9992
2 66907  51.6251  57.7346 0004745  87.9438 272.2103 15.69794721 15421
ISS OBJECT XU           
1 66908U 98067XU  26070.36368183  .00188668  00000+0  15073-2 0  9996
2 66908  51.6252  57.0682 0004820  90.1166 270.0384 15.69975875 15447
SILVERSAT               
1 66909U 98067XV  26070.23470510  .00236525  00000+0  16574-2 0  9994
2 66909  51.6250  56.9557 0005466  87.1357 273.0267 15.72937624 15436
ISS OBJECT XW           
1 66910U 98067XW  26070.23384303  .00158614  00000+0  13203-2 0  9998
2 66910  51.6252  57.6975 0005316  95.4804 264.6799 15.69081269 15421
